TDRS 3                  
1 19548U 88091B   23343.90958194 -.00000280  00000+0  00000+0 0  9992
2 19548  13.3109 347.2655 0039940 333.0929  36.7462  1.00273006116164
FLTSATCOM 8 (USA 46)    
1 20253U 89077A   23343.92896567 -.00000347  00000+0  00000+0 0  9993
2 20253  12.6942 356.7317 0005188 278.1239 263.7653  1.00276707251374
SKYNET 4C               
1 20776U 90079A   23343.71095796  .00000144  00000+0  00000+0 0  9993
2 20776  13.6385 356.1233 0002825 264.3072 107.1172  1.00271927121668
TDRS 5                  
1 21639U 91054B   23343.74272128  .00000103  00000+0  00000+0 0  9990
2 21639  14.1872   0.5191 0023994 354.6748 183.1633  1.00269957118482
TDRS 6                  
1 22314U 93003B   23343.91019110 -.00000277  00000+0  00000+0 0  9999
2 22314  14.1571   3.8111 0008404 168.1329 188.2619  1.00269555113174
UFO 2 (USA 95)          
1 22787U 93056A   23343.75465997  .00000146  00000+0  00000+0 0  9995
2 22787  11.6035   8.3401 0004275 250.9559 119.3430  1.00270586109328
USA 99 (MILSTAR-1 1)    
1 22988U 94009A   23344.11630939 -.00000181  00000+0  00000+0 0  9998
2 22988  16.2105  37.4427 0002763 227.3336 125.7257  1.00273538 22414
UFO 4 (USA 108)         
1 23467U 95003A   23343.81033799 -.00000002  00000+0  00000+0 0  9995
2 23467   9.7483  16.0565 0004014 199.5917 326.5383  1.00270246105725
AMSC 1                  
1 23553U 95019A   23343.60817861 -.00000074  00000+0  00000+0 0  9994
2 23553  12.4512  22.6399 0006745 237.0933 289.8225  1.00272310104934